     2.100          NAVIGATION                              RINEX VERSION / TYPE
fic2rin                                 01/12/2018 00:17:52 PGM / RUN BY / DATE
                                                            END OF HEADER
27 18  1 11  8  0  0.0  .361897051334D-03  .216004991671D-11  .000000000000D+00
     .190000000000D+02 -.696875000000D+02  .411731435981D-08 -.187059816624D+01
    -.376068055630D-05  .529715430457D-02  .797584652901D-05  .515367987633D+04
     .374400000000D+06  .353902578354D-07 -.130032664584D+01 -.819563865662D-07
     .976431688162D+00  .233343750000D+03  .352616075761D+00 -.788532845558D-08
    -.150006248362D-10  .100000000000D+01  .198300000000D+04  .000000000000D+00
     .240000000000D+01  .000000000000D+00  .186264514923D-08  .190000000000D+02
     .367206000000D+06  .400000000000D+01
28 18  1 11  8  0  0.0  .678847078234D-03  .352429196937D-11  .000000000000D+00
     .750000000000D+02  .643750000000D+01  .424589114412D-08 -.104942431488D+01
     .659376382828D-06  .199022759916D-01  .421144068241D-05  .515366765213D+04
     .374400000000D+06 -.318512320518D-06 -.225897378374D+01  .288709998131D-06
     .987042127661D+00  .318562500000D+03 -.153369367266D+01 -.836463413487D-08
     .321441960776D-10  .100000000000D+01  .198300000000D+04  .000000000000D+00
     .340000000000D+01  .000000000000D+00 -.111758708954D-07  .750000000000D+02
     .367206000000D+06  .400000000000D+01
29 18  1 11  8  0  0.0  .512764323503D-03 -.534328137292D-11  .000000000000D+00
     .170000000000D+02 -.643125000000D+02  .401873882517D-08 -.535565090973D+00
    -.330805778503D-05  .430208863690D-03  .742822885513D-05  .515375686646D+04
     .374400000000D+06  .931322574615D-08 -.123660447832D+01  .745058059692D-08
     .982870332952D+00  .251781250000D+03  .770300089565D+00 -.784425531615D-08
    -.492877673191D-10  .100000000000D+01  .198300000000D+04  .000000000000D+00
     .240000000000D+01  .000000000000D+00 -.102445483208D-07  .170000000000D+02
     .367206000000D+06  .400000000000D+01
30 18  1 11  8  0  0.0  .113510526717D-03 -.318323145621D-11  .000000000000D+00
     .170000000000D+02  .882812500000D+02  .474698344520D-08  .160317295825D+01
     .462122261524D-05  .301360292360D-02  .789389014244D-05  .515358847809D+04
     .374400000000D+06 -.186264514923D-07  .294741072724D+01  .149011611938D-07
     .945861318738D+00  .218593750000D+03 -.309782680259D+01 -.822534261854D-08
     .900037490174D-10  .100000000000D+01  .198300000000D+04  .000000000000D+00
     .240000000000D+01  .000000000000D+00  .372529029846D-08  .170000000000D+02
     .367206000000D+06  .400000000000D+01
31 18  1 11  8  0  0.0  .149419065565D-03 -.261479726760D-11  .000000000000D+00
     .190000000000D+02  .860937500000D+02  .426267755763D-08  .127500343879D+01
     .463239848614D-05  .884687749203D-02  .729039311409D-05  .515359258842D+04
     .374400000000D+06  .484287738800D-07  .292375839354D+01  .208616256714D-06
     .964895849111D+00  .238562500000D+03 -.177061647694D+00 -.792354433314D-08
     .282154610015D-10  .100000000000D+01  .198300000000D+04  .000000000000D+00
     .240000000000D+01  .000000000000D+00 -.135041773319D-07  .190000000000D+02
     .367206000000D+06  .400000000000D+01
32 18  1 11  8  0  0.0 -.532653182745D-03 -.568434188608D-12  .000000000000D+00
     .180000000000D+02  .443750000000D+01  .454304637897D-08 -.114619525595D+01
     .165775418282D-06  .156339991372D-02  .946782529354D-05  .515362165260D+04
     .374400000000D+06  .113621354103D-06  .183808989703D+01 -.577419996262D-07
     .956992495630D+00  .199093750000D+03 -.269250450653D+01 -.791247244338D-08
    -.366086677551D-09  .100000000000D+01  .198300000000D+04  .000000000000D+00
     .240000000000D+01  .000000000000D+00  .465661287308D-09  .180000000000D+02
     .367206000000D+06  .400000000000D+01
18 18  1 11  7 59 44.0  .633574556559D-03  .000000000000D+00  .000000000000D+00
     .200000000000D+02 -.909375000000D+01  .577988361250D-08 -.433637485096D+00
    -.389292836189D-06  .183412657352D-01  .597164034843D-05  .515364156723D+04
     .374384000000D+06 -.180676579475D-06  .744918111252D+00  .109896063805D-06
     .926346505044D+00  .249593750000D+03 -.176031657106D+01 -.901394689564D-08
     .275011455331D-10  .100000000000D+01  .198300000000D+04  .000000000000D+00
     .240000000000D+01  .000000000000D+00 -.111758708954D-07  .200000000000D+02
     .368706000000D+06  .400000000000D+01
 7 18  1 11  7 59 44.0  .253178644925D-03 -.545696821064D-11  .000000000000D+00
     .190000000000D+02  .882187500000D+02  .447875798682D-08  .147921071788D+01
     .465102493763D-05  .110987604130D-01  .824779272079D-05  .515370471001D+04
     .374384000000D+06 -.122934579849D-06  .291184180812D+01  .102445483208D-06
     .960194173770D+00  .220812500000D+03 -.254499597062D+01 -.816962601200D-08
     .171435712414D-10  .100000000000D+01  .198300000000D+04  .000000000000D+00
     .240000000000D+01  .000000000000D+00 -.111758708954D-07  .190000000000D+02
     .369726000000D+06  .400000000000D+01
11 18  1 11  7 59 28.0 -.733640510589D-03 -.113686837722D-11  .000000000000D+00
     .190000000000D+02 -.427187500000D+02  .577559771968D-08  .146632700755D+01
    -.246241688728D-05  .167673905380D-01  .896491110325D-05  .515375448799D+04
     .374368000000D+06  .126659870148D-06 -.661268186303D+00 -.409781932831D-06
     .903870230212D+00  .175218750000D+03  .173268610814D+01 -.857785730219D-08
     .271082720255D-09  .100000000000D+01  .198300000000D+04  .000000000000D+00
     .240000000000D+01  .000000000000D+00 -.121071934700D-07  .190000000000D+02
     .373206000000D+06  .400000000000D+01
14 18  1 11  7 59 44.0 -.921916216612D-04 -.682121026330D-12  .000000000000D+00
     .200000000000D+02  .161562500000D+02  .435125267571D-08 -.226913011737D+01
     .804662704468D-06  .926551036537D-02  .948272645473D-05  .515372647858D+04
     .374384000000D+06  .122934579849D-06  .192247215438D+01 -.968575477600D-07
     .960997524993D+00  .198156250000D+03 -.195449647566D+01 -.765817613663D-08
    -.266439669710D-09  .100000000000D+01  .198300000000D+04  .000000000000D+00
     .240000000000D+01  .000000000000D+00 -.977888703346D-08  .200000000000D+02
     .373206000000D+06  .400000000000D+01
11 18  1 11  9 59 28.0 -.733648426831D-03 -.113686837722D-11  .000000000000D+00
     .200000000000D+02 -.362500000000D+02  .560916221555D-08  .251642204258D+01
    -.193901360035D-05  .167669468792D-01  .877119600773D-05  .515375609016D+04
     .381568000000D+06  .197440385818D-06 -.661327449114D+00 -.298023223877D-07
     .903872867853D+00  .176031250000D+03  .173272987573D+01 -.825927260328D-08
     .147148986489D-09  .100000000000D+01  .198300000000D+04  .000000000000D+00
     .240000000000D+01  .000000000000D+00 -.121071934700D-07  .200000000000D+02
     .374406000000D+06  .400000000000D+01
 7 18  1 11  9 59 44.0  .253139529377D-03 -.545696821064D-11  .000000000000D+00
     .200000000000D+02  .940000000000D+02  .439125434194D-08  .252942717218D+01
     .476278364658D-05  .110986663494D-01  .804662704468D-05  .515370375824D+04
     .381584000000D+06 -.800937414169D-07  .291178297979D+01 -.188127160072D-06
     .960195774202D+00  .223562500000D+03 -.254504978553D+01 -.791104381244D-08
     .130362572982D-09  .100000000000D+01  .198300000000D+04  .000000000000D+00
     .240000000000D+01  .000000000000D+00 -.111758708954D-07  .200000000000D+02
     .374406000000D+06  .400000000000D+01
14 18  1 11  9 59 44.0 -.921962782741D-04 -.682121026330D-12  .000000000000D+00
     .230000000000D+02  .540625000000D+01  .446661462386D-08 -.121879522961D+01
     .296160578728D-06  .926529616117D-02  .918284058571D-05  .515372977257D+04
     .381584000000D+06  .100582838058D-06  .192241712965D+01  .266358256340D-06
     .960993855994D+00  .204968750000D+03 -.195468508530D+01 -.797283210046D-08
    -.408945605655D-09  .100000000000D+01  .198300000000D+04  .000000000000D+00
     .240000000000D+01  .000000000000D+00 -.977888703346D-08  .230000000000D+02
     .374406000000D+06  .400000000000D+01
18 18  1 11  9 59 44.0  .633574090898D-03  .000000000000D+00  .000000000000D+00
     .210000000000D+02 -.865625000000D+01  .579774149921D-08  .616570419913D+00
    -.409781932831D-06  .183415812207D-01  .623427331448D-05  .515364218330D+04
     .381584000000D+06 -.221654772758D-06  .744853641915D+00  .558793544769D-08
     .926346430436D+00  .247468750000D+03 -.176031525736D+01 -.900108921721D-08
    -.507163982558D-10  .100000000000D+01  .198300000000D+04  .000000000000D+00
     .240000000000D+01  .000000000000D+00 -.111758708954D-07  .210000000000D+02
     .374406000000D+06  .400000000000D+01
 1 18  1 11 10  0  0.0 -.229999423027D-04 -.181898940355D-11  .000000000000D+00
     .630000000000D+02 -.111562500000D+02  .430125059292D-08 -.307697986593D+01
    -.635161995888D-06  .722673069686D-02  .899098813534D-05  .515367582130D+04
     .381600000000D+06 -.670552253723D-07 -.243553628232D+00 -.614672899246D-07
     .970143513274D+00  .211031250000D+03  .620331411133D+00 -.775639451354D-08
     .381801617856D-09  .100000000000D+01  .198300000000D+04  .000000000000D+00
     .240000000000D+01  .000000000000D+00  .558793544769D-08  .630000000000D+02
     .374406000000D+06  .400000000000D+01
 2 18  1 11 10  0  0.0  .231247860938D-03 -.102318153949D-10  .000000000000D+00
     .150000000000D+02 -.289375000000D+02  .469376694280D-08 -.266967235932D+01
    -.142864882946D-05  .176239777356D-01  .894442200661D-05  .515366233253D+04
     .381600000000D+06  .350177288055D-06 -.301775523670D+00 -.353902578354D-07
     .949146427096D+00  .195625000000D+03 -.191458413960D+01 -.783246911092D-08
     .455018953366D-09  .100000000000D+01  .198300000000D+04  .000000000000D+00
     .240000000000D+01  .000000000000D+00 -.204890966415D-07  .150000000000D+02
     .374406000000D+06  .400000000000D+01
